SNAP-3 JIMI             
1 40975U 15058M   26066.63301259  .00009732  00000+0  68430-3 0  9997
2 40975  64.7661 180.7952 0105582  97.3046 264.0086 15.01099523 98973
PROPCUBE 1 (FLORA)      
1 40976U 15058N   26066.64009516  .00005098  00000+0  48094-3 0  9995
2 40976  64.7734 249.8119 0130234 100.9744 260.6049 14.88618213101147
SINOD-D 3               
1 40977U 15058P   26066.60207781  .00007365  00000+0  62642-3 0  9990
2 40977  64.7721 232.8364 0118632  99.0040 262.4522 14.93181602 99586
HORYU-4                 
1 41340U 16012D   26066.42279063  .00120119  00000+0  12841-2 0  9996
2 41340  30.9914  83.8634 0002651 129.3575 230.7313 15.62405708554751
RAVAN                   
1 41849U 16067B   26066.63705845  .00053105  00000+0  10859-2 0  9992
2 41849  98.0040 305.1400 0006449  13.5314 346.6105 15.45945413511960
CELTEE 1                
1 41850U 16067C   26066.57384743  .00008671  00000+0  42319-3 0  9992
2 41850  98.0813 286.2020 0000840 133.2235 226.9067 15.18558272510451
OPTICUBE 04             
1 41851U 16067D   26066.52098356  .00004601  00000+0  29321-3 0  9997
2 41851  98.0805 273.4582 0016978 100.8187 259.4952 15.09171802509833
AEROCUBE 8D             
1 41852U 16067E   26066.55959577  .00012731  00000+0  54696-3 0  9998
2 41852  98.0830 289.0255 0004591 116.7135 243.4570 15.22826138510597
AEROCUBE 8C             
1 41853U 16067F   26066.60028791  .00012233  00000+0  52209-3 0  9995
2 41853  98.0697 286.4316 0006571  59.6450 300.5434 15.23051521510594
CORVUS BC2              
1 42846U 17042X   26066.40133030  .00006717  00000+0  46892-3 0  9994
2 42846  97.3946 231.8191 0014396 100.3646 259.9205 15.05582031471747
CORVUS BC1              
1 42847U 17042Y   26066.54108943  .00005834  00000+0  40573-3 0  9994
2 42847  97.3975 232.6973 0013179  78.3014 281.9692 15.05792176471791
MAKERSAT 0              
1 43016U 17073D   26066.60628934  .00032146  00000+0  97374-3 0  9998
2 43016  97.4780 308.5784 0115480 273.3625  85.4410 15.27681875450936
SIRION PATHFINDER-2     
1 43759U 18099B   26066.60210915  .00007975  00000+0  44858-3 0  9998
2 43759  97.4393 118.0779 0007349 295.3592  64.6878 15.13509100397256
CORVUS BC4              
1 43767U 18099K   26066.60713487  .00007574  00000+0  44943-3 0  9999
2 43767  97.4201 112.5524 0008246   3.1368 356.9912 15.11587234397059
SPACEBEE-7              
1 43816U 18099BL  26066.22813854  .04568904  24673-5  18730-2 0  9996
2 43816  97.4297 153.1409 0010231 276.5494  83.4632 16.23200487398828
M2 PATHFINDER           
1 45727U 20037E   26066.48399012  .00004861  00000+0  35432-3 0  9991
2 45727  97.8149 256.5812 0012372 133.8596 226.3654 15.04158416310203
