[{"OBJECT_NAME":"SNAP-3 JIMI","OBJECT_ID":"2015-058M","EPOCH":"2026-03-07T15:11:32.287776","MEAN_MOTION":15.01099523,"ECCENTRICITY":0.01055821,"INCLINATION":64.7661,"RA_OF_ASC_NODE":180.7952,"ARG_OF_PERICENTER":97.3046,"MEAN_ANOMALY":264.0086,"EPHEMERIS_TYPE":0,"CLASSIFICATION_TYPE":"U","NORAD_CAT_ID":40975,"ELEMENT_SET_NO":999,"REV_AT_EPOCH":9897,"BSTAR":0.00068429552,"MEAN_MOTION_DOT":9.732e-5,"MEAN_MOTION_DDOT":0},{"OBJECT_NAME":"PROPCUBE 1 (FLORA)","OBJECT_ID":"2015-058N","EPOCH":"2026-03-07T15:21:44.221824","MEAN_MOTION":14.88618213,"ECCENTRICITY":0.01302342,"INCLINATION":64.7734,"RA_OF_ASC_NODE":249.8119,"ARG_OF_PERICENTER":100.9744,"MEAN_ANOMALY":260.6049,"EPHEMERIS_TYPE":0,"CLASSIFICATION_TYPE":"U","NORAD_CAT_ID":40976,"ELEMENT_SET_NO":999,"REV_AT_EPOCH":10114,"BSTAR":0.00048093531,"MEAN_MOTION_DOT":5.098e-5,"MEAN_MOTION_DDOT":0},{"OBJECT_NAME":"SINOD-D 3","OBJECT_ID":"2015-058P","EPOCH":"2026-03-07T14:26:59.522784","MEAN_MOTION":14.93181602,"ECCENTRICITY":0.01186327,"INCLINATION":64.7721,"RA_OF_ASC_NODE":232.8364,"ARG_OF_PERICENTER":99.004,"MEAN_ANOMALY":262.4522,"EPHEMERIS_TYPE":0,"CLASSIFICATION_TYPE":"U","NORAD_CAT_ID":40977,"ELEMENT_SET_NO":999,"REV_AT_EPOCH":9958,"BSTAR":0.00062642166,"MEAN_MOTION_DOT":7.365e-5,"MEAN_MOTION_DDOT":0},{"OBJECT_NAME":"HORYU-4","OBJECT_ID":"2016-012D","EPOCH":"2026-03-07T10:08:49.110432","MEAN_MOTION":15.62405708,"ECCENTRICITY":0.00026513,"INCLINATION":30.9914,"RA_OF_ASC_NODE":83.8634,"ARG_OF_PERICENTER":129.3575,"MEAN_ANOMALY":230.7313,"EPHEMERIS_TYPE":0,"CLASSIFICATION_TYPE":"U","NORAD_CAT_ID":41340,"ELEMENT_SET_NO":999,"REV_AT_EPOCH":55475,"BSTAR":0.0012840851,"MEAN_MOTION_DOT":0.00120119,"MEAN_MOTION_DDOT":0},{"OBJECT_NAME":"RAVAN","OBJECT_ID":"2016-067B","EPOCH":"2026-03-07T15:17:21.850080","MEAN_MOTION":15.45945413,"ECCENTRICITY":0.00064492,"INCLINATION":98.004,"RA_OF_ASC_NODE":305.14,"ARG_OF_PERICENTER":13.5314,"MEAN_ANOMALY":346.6105,"EPHEMERIS_TYPE":0,"CLASSIFICATION_TYPE":"U","NORAD_CAT_ID":41849,"ELEMENT_SET_NO":999,"REV_AT_EPOCH":51196,"BSTAR":0.0010859418,"MEAN_MOTION_DOT":0.00053105,"MEAN_MOTION_DDOT":0},{"OBJECT_NAME":"CELTEE 1","OBJECT_ID":"2016-067C","EPOCH":"2026-03-07T13:46:20.417952","MEAN_MOTION":15.18558272,"ECCENTRICITY":8.405e-5,"INCLINATION":98.0813,"RA_OF_ASC_NODE":286.202,"ARG_OF_PERICENTER":133.2235,"MEAN_ANOMALY":226.9067,"EPHEMERIS_TYPE":0,"CLASSIFICATION_TYPE":"U","NORAD_CAT_ID":41850,"ELEMENT_SET_NO":999,"REV_AT_EPOCH":51045,"BSTAR":0.00042318651,"MEAN_MOTION_DOT":8.671e-5,"MEAN_MOTION_DDOT":0},{"OBJECT_NAME":"OPTICUBE 04","OBJECT_ID":"2016-067D","EPOCH":"2026-03-07T12:30:12.979584","MEAN_MOTION":15.09171802,"ECCENTRICITY":0.00169784,"INCLINATION":98.0805,"RA_OF_ASC_NODE":273.4582,"ARG_OF_PERICENTER":100.8187,"MEAN_ANOMALY":259.4952,"EPHEMERIS_TYPE":0,"CLASSIFICATION_TYPE":"U","NORAD_CAT_ID":41851,"ELEMENT_SET_NO":999,"REV_AT_EPOCH":50983,"BSTAR":0.0002932056,"MEAN_MOTION_DOT":4.601e-5,"MEAN_MOTION_DDOT":0},{"OBJECT_NAME":"AEROCUBE 8D","OBJECT_ID":"2016-067E","EPOCH":"2026-03-07T13:25:49.074528","MEAN_MOTION":15.22826138,"ECCENTRICITY":0.00045912,"INCLINATION":98.083,"RA_OF_ASC_NODE":289.0255,"ARG_OF_PERICENTER":116.7135,"MEAN_ANOMALY":243.457,"EPHEMERIS_TYPE":0,"CLASSIFICATION_TYPE":"U","NORAD_CAT_ID":41852,"ELEMENT_SET_NO":999,"REV_AT_EPOCH":51059,"BSTAR":0.00054695788,"MEAN_MOTION_DOT":0.00012731,"MEAN_MOTION_DDOT":0},{"OBJECT_NAME":"AEROCUBE 8C","OBJECT_ID":"2016-067F","EPOCH":"2026-03-07T14:24:24.875424","MEAN_MOTION":15.23051521,"ECCENTRICITY":0.0006571,"INCLINATION":98.0697,"RA_OF_ASC_NODE":286.4316,"ARG_OF_PERICENTER":59.645,"MEAN_ANOMALY":300.5434,"EPHEMERIS_TYPE":0,"CLASSIFICATION_TYPE":"U","NORAD_CAT_ID":41853,"ELEMENT_SET_NO":999,"REV_AT_EPOCH":51059,"BSTAR":0.00052208663,"MEAN_MOTION_DOT":0.00012233,"MEAN_MOTION_DDOT":0},{"OBJECT_NAME":"CORVUS BC2","OBJECT_ID":"2017-042X","EPOCH":"2026-03-07T09:37:54.937920","MEAN_MOTION":15.05582031,"ECCENTRICITY":0.00143965,"INCLINATION":97.3946,"RA_OF_ASC_NODE":231.8191,"ARG_OF_PERICENTER":100.3646,"MEAN_ANOMALY":259.9205,"EPHEMERIS_TYPE":0,"CLASSIFICATION_TYPE":"U","NORAD_CAT_ID":42846,"ELEMENT_SET_NO":999,"REV_AT_EPOCH":47174,"BSTAR":0.00046891919,"MEAN_MOTION_DOT":6.717e-5,"MEAN_MOTION_DDOT":0},{"OBJECT_NAME":"CORVUS BC1","OBJECT_ID":"2017-042Y","EPOCH":"2026-03-07T12:59:10.126752","MEAN_MOTION":15.05792176,"ECCENTRICITY":0.00131796,"INCLINATION":97.3975,"RA_OF_ASC_NODE":232.6973,"ARG_OF_PERICENTER":78.3014,"MEAN_ANOMALY":281.9692,"EPHEMERIS_TYPE":0,"CLASSIFICATION_TYPE":"U","NORAD_CAT_ID":42847,"ELEMENT_SET_NO":999,"REV_AT_EPOCH":47179,"BSTAR":0.00040572947,"MEAN_MOTION_DOT":5.834e-5,"MEAN_MOTION_DDOT":0},{"OBJECT_NAME":"MAKERSAT 0","OBJECT_ID":"2017-073D","EPOCH":"2026-03-07T14:33:03.398976","MEAN_MOTION":15.27681875,"ECCENTRICITY":0.01154808,"INCLINATION":97.478,"RA_OF_ASC_NODE":308.5784,"ARG_OF_PERICENTER":273.3625,"MEAN_ANOMALY":85.441,"EPHEMERIS_TYPE":0,"CLASSIFICATION_TYPE":"U","NORAD_CAT_ID":43016,"ELEMENT_SET_NO":999,"REV_AT_EPOCH":45093,"BSTAR":0.00097374341,"MEAN_MOTION_DOT":0.00032146,"MEAN_MOTION_DDOT":0},{"OBJECT_NAME":"SIRION PATHFINDER-2","OBJECT_ID":"2018-099B","EPOCH":"2026-03-07T14:27:02.230560","MEAN_MOTION":15.135091,"ECCENTRICITY":0.0007349,"INCLINATION":97.4393,"RA_OF_ASC_NODE":118.0779,"ARG_OF_PERICENTER":295.3592,"MEAN_ANOMALY":64.6878,"EPHEMERIS_TYPE":0,"CLASSIFICATION_TYPE":"U","NORAD_CAT_ID":43759,"ELEMENT_SET_NO":999,"REV_AT_EPOCH":39725,"BSTAR":0.00044857555,"MEAN_MOTION_DOT":7.975e-5,"MEAN_MOTION_DDOT":0},{"OBJECT_NAME":"CORVUS BC4","OBJECT_ID":"2018-099K","EPOCH":"2026-03-07T14:34:16.452768","MEAN_MOTION":15.11587234,"ECCENTRICITY":0.00082466,"INCLINATION":97.4201,"RA_OF_ASC_NODE":112.5524,"ARG_OF_PERICENTER":3.1368,"MEAN_ANOMALY":356.9912,"EPHEMERIS_TYPE":0,"CLASSIFICATION_TYPE":"U","NORAD_CAT_ID":43767,"ELEMENT_SET_NO":999,"REV_AT_EPOCH":39705,"BSTAR":0.00044942663,"MEAN_MOTION_DOT":7.574e-5,"MEAN_MOTION_DDOT":0},{"OBJECT_NAME":"SPACEBEE-7","OBJECT_ID":"2018-099BL","EPOCH":"2026-03-07T05:28:31.169856","MEAN_MOTION":16.23200487,"ECCENTRICITY":0.0010231,"INCLINATION":97.4297,"RA_OF_ASC_NODE":153.1409,"ARG_OF_PERICENTER":276.5494,"MEAN_ANOMALY":83.4632,"EPHEMERIS_TYPE":0,"CLASSIFICATION_TYPE":"U","NORAD_CAT_ID":43816,"ELEMENT_SET_NO":999,"REV_AT_EPOCH":39882,"BSTAR":0.001873,"MEAN_MOTION_DOT":0.04568904,"MEAN_MOTION_DDOT":2.4673e-6},{"OBJECT_NAME":"M2 PATHFINDER","OBJECT_ID":"2020-037E","EPOCH":"2026-03-07T11:36:56.746368","MEAN_MOTION":15.04158416,"ECCENTRICITY":0.00123721,"INCLINATION":97.8149,"RA_OF_ASC_NODE":256.5812,"ARG_OF_PERICENTER":133.8596,"MEAN_ANOMALY":226.3654,"EPHEMERIS_TYPE":0,"CLASSIFICATION_TYPE":"U","NORAD_CAT_ID":45727,"ELEMENT_SET_NO":999,"REV_AT_EPOCH":31020,"BSTAR":0.00035432297,"MEAN_MOTION_DOT":4.861e-5,"MEAN_MOTION_DDOT":0}]
